CSS (TIANHE)            
1 48274U 21035A   23257.63592579  .00035898  00000+0  39729-3 0  9996
2 48274  41.4749 331.8156 0008722  14.8039 345.3054 15.62232234135819
